NORAD_CAT_ID,OBJECT_NAME,OBJECT_TYPE,EPOCH,MEAN_MOTION,ECCENTRICITY,INCLINATION,RA_OF_ASC_NODE,ARG_OF_PERICENTER,MEAN_ANOMALY,BSTAR,MEAN_MOTION_DOT,MEAN_MOTION_DDOT,TLE_LINE0,TLE_LINE1,TLE_LINE2,SEMIMAJOR_AXIS,PERIOD,APOGEE,PERIGEE,DECAYED
53970.0,STARLINK-4567,PAYLOAD,2023-01-10 16:50:00,15.08835613,0.0001914,53.2163,359.9668,43.135,316.9792,-0.00011812,-2.167e-05,0.0,0 STARLINK-4567,1 53970U 22125G   23010.70139041 -.00002167  00000-0 -11812-3 0  9991,2 53970  53.2163 359.9668 0001914  43.1350 316.9792 15.08835613 15242,6917.894,95.438,541.0830000000002,538.435,0.0
53970.0,STARLINK-4567,PAYLOAD,2023-01-11 03:57:41,15.08852722,0.0001837,53.2167,357.8846,39.3072,320.8053,0.00025202,3.726e-05,0.0,0 STARLINK-4567,1 53970U 22125G   23011.16506461  .00003726  00000-0  25202-3 0  9994,2 53970  53.2167 357.8846 0001837  39.3072 320.8053 15.08852722 15315,6917.842,95.437,540.977,538.436,0.0
53970.0,STARLINK-4567,PAYLOAD,2023-01-11 05:33:04,15.08850486,0.0001874,53.2162,357.5876,43.0103,317.1035,0.00023072,3.387e-05,0.0,0 STARLINK-4567,1 53970U 22125G   23011.23130577  .00003387  00000-0  23072-3 0  9999,2 53970  53.2162 357.5876 0001874  43.0103 317.1035 15.08850486 15255,6917.848000000001,95.437,541.01,538.4169999999998,0.0
53970.0,STARLINK-4567,PAYLOAD,2023-01-11 19:51:33,15.08846698,0.0001911,53.2163,354.9113,43.2092,316.905,0.00023435,3.444e-05,0.0,0 STARLINK-4567,1 53970U 22125G   23011.82746674  .00003444  00000-0  23435-3 0  9992,2 53970  53.2163 354.9113 0001911  43.2092 316.9050 15.08846698 15346,6917.86,95.437,541.047,538.403,0.0
53970.0,STARLINK-4567,PAYLOAD,2023-01-11 23:02:19,15.08852106,0.0001947,53.2163,354.3172,42.7639,317.3505,0.00032606,4.907e-05,0.0,0 STARLINK-4567,1 53970U 22125G   23011.95994426  .00004907  00000-0  32606-3 0  9991,2 53970  53.2163 354.3172 0001947  42.7639 317.3505 15.08852106 15436,6917.843000000002,95.437,541.055,538.361,0.0
53970.0,STARLINK-4567,PAYLOAD,2023-01-12 10:10:00,15.08876063,0.000196,53.2165,352.2355,43.1781,316.9365,0.00078476,0.00012236,0.0,0 STARLINK-4567,1 53970U 22125G   23012.42361256  .00012236  00000-0  78476-3 0  9992,2 53970  53.2165 352.2355 0001960  43.1781 316.9365 15.08876063 15501,6917.77,95.435,540.991,538.279,0.0
53970.0,STARLINK-4567,PAYLOAD,2023-01-12 22:53:07,15.08808772,0.0001655,53.2164,349.8568,63.1855,296.9306,-0.00079417,-0.00012894,0.0,0 STARLINK-4567,1 53970U 22125G   23012.95355428 -.00012894  00000-0 -79417-3 0  9992,2 53970  53.2164 349.8568 0001655  63.1855 296.9306 15.08808772 15585,6917.976,95.44,540.986,538.696,0.0
53970.0,STARLINK-4567,PAYLOAD,2023-01-13 05:14:39,15.08818406,0.0001662,53.2166,348.6687,55.4284,304.6864,0.00010963,1.456e-05,0.0,0 STARLINK-4567,1 53970U 22125G   23013.21851761  .00001456  00000-0  10963-3 0  9994,2 53970  53.2166 348.6687 0001662  55.4284 304.6864 15.08818406 15620,6917.946,95.439,540.961,538.6619999999999,0.0
53970.0,STARLINK-4567,PAYLOAD,2023-01-13 22:43:55,15.08839443,0.0001576999999999,53.2165,345.3982,63.4518,296.6635,0.0015107999999999,0.00023838,0.0,0 STARLINK-4567,1 53970U 22125G   23013.94716988  .00023838  00000-0  15108-2 0  9998,2 53970  53.2165 345.3982 0001577  63.4518 296.6635 15.08839443 15669,6917.882,95.438,540.8380000000001,538.656,0.0
53970.0,STARLINK-4567,PAYLOAD,2023-01-14 01:54:41,15.0884884,0.0001556,53.2165,344.8039,64.6132,295.5021,0.0017889,0.00028304,0.0,0 STARLINK-4567,1 53970U 22125G   23014.07964923  .00028304  00000-0  17889-2 0  9998,2 53970  53.2165 344.8039 0001556  64.6132 295.5021 15.08848840 15756,6917.853,95.437,540.795,538.6419999999999,0.0
53970.0,STARLINK-4567,PAYLOAD,2023-01-14 08:16:13,15.08879986,0.0001545,53.2165,343.6137,66.9332,293.1823,0.0027825,0.00044323,0.0,0 STARLINK-4567,1 53970U 22125G   23014.34460327  .00044323  00000-0  27825-2 0  9997,2 53970  53.2165 343.6137 0001545  66.9332 293.1823 15.08879986 15790,6917.758000000001,95.435,540.692,538.554,0.0
53970.0,STARLINK-4567,PAYLOAD,2023-01-14 14:37:46,15.08853008,0.0001424,53.2166,342.4231,74.3514,285.7635,0.00065915,0.00010222,0.0,0 STARLINK-4567,1 53970U 22125G   23014.60956538  .00010222  00000-0  65915-3 0  9994,2 53970  53.2166 342.4231 0001424  74.3514 285.7635 15.08853008 15834,6917.840999999999,95.437,540.691,538.721,0.0
53970.0,STARLINK-4567,PAYLOAD,2023-01-15 08:07:01,15.08853161,0.0002032,53.2156,339.1524,76.405,283.7168,0.0012005,0.00018877,0.0,0 STARLINK-4567,1 53970U 22125G   23015.33820764  .00018877  00000-0  12005-2 0  9991,2 53970  53.2156 339.1524 0002032  76.4050 283.7168 15.08853161 15946,6917.84,95.437,541.111,538.299,0.0
53970.0,STARLINK-4567,PAYLOAD,2023-01-15 14:28:33,15.08847896,0.0001236,53.2164,337.9637,93.1069,267.0065,0.0005302,8.162e-05,0.0,0 STARLINK-4567,1 53970U 22125G   23015.60316483  .00008162  00000-0  53020-3 0  9998,2 53970  53.2164 337.9637 0001236  93.1069 267.0065 15.08847896 15980,6917.856,95.437,540.576,538.866,0.0
53970.0,STARLINK-4567,PAYLOAD,2023-01-16 03:11:37,15.08880812,0.0001250999999999,53.2157,335.5847,126.4554,233.6553,0.0020598,0.00032683,0.0,0 STARLINK-4567,1 53970U 22125G   23016.13307535  .00032683  00000-0  20598-2 0  9993,2 53970  53.2157 335.5847 0001251 126.4554 233.6553 15.08880812 16061,6917.755999999999,95.435,540.486,538.755,0.0
53970.0,STARLINK-4567,PAYLOAD,2023-01-16 04:47:00,15.088874100000002,0.0001403,53.2158,335.2875,136.6387,223.4715,0.0022489999999999,0.00035733,0.0,0 STARLINK-4567,1 53970U 22125G   23016.19931233  .00035733  00000-0  22490-2 0  9999,2 53970  53.2158 335.2875 0001403 136.6387 223.4715 15.08887410 16008,6917.735,95.435,540.571,538.63,0.0
53970.0,STARLINK-4567,PAYLOAD,2023-01-16 14:19:20,15.08845615,0.0002023,53.2166,333.5028,69.3544,290.7665,0.00073231,0.00011388,0.0,0 STARLINK-4567,1 53970U 22125G   23016.59676312  .00011388  00000-0  73231-3 0  9997,2 53970  53.2166 333.5028 0002023  69.3544 290.7665 15.08845615 16130,6917.863,95.437,541.128,538.3290000000001,0.0
53970.0,STARLINK-4567,PAYLOAD,2023-01-16 20:40:53,15.088043300000002,0.0001103,53.2174,332.3123,86.2637,273.8482,-0.00016594,-2.925e-05,0.0,0 STARLINK-4567,1 53970U 22125G   23016.86172907 -.00002925  00000-0 -16594-3 0  9996,2 53970  53.2174 332.3123 0001103  86.2637 273.8482 15.08804330 16106,6917.9890000000005,95.44,540.617,539.091,0.0
53970.0,STARLINK-4567,PAYLOAD,2023-01-17 03:02:26,15.08815162,0.0001551999999999,53.2133,331.1234,77.0812,283.0353,0.0016852,0.00026616,0.0,0 STARLINK-4567,1 53970U 22125G   23017.12669476  .00026616  00000-0  16852-2 0  9995,2 53970  53.2133 331.1234 0001552  77.0812 283.0353 15.08815162 16219,6917.956,95.439,540.895,538.748,0.0
53970.0,STARLINK-4567,PAYLOAD,2023-01-17 14:10:08,15.08842222,0.0001347,53.2166,329.0397,85.8466,274.268,0.0015565,0.00024572,0.0,0 STARLINK-4567,1 53970U 22125G   23017.59037532  .00024572  00000-0  15565-2 0  9997,2 53970  53.2166 329.0397 0001347  85.8466 274.2680 15.08842222 16217,6917.874,95.437,540.67,538.807,0.0
53970.0,STARLINK-4567,PAYLOAD,2023-01-17 20:31:41,15.08840291,0.0001839,53.2155,327.8538,85.4842,274.636,0.0008106,0.00012636,0.0,0 STARLINK-4567,1 53970U 22125G   23017.85533896  .00012636  00000-0  81060-3 0  9992,2 53970  53.2155 327.8538 0001839  85.4842 274.6360 15.08840291 16255,6917.879,95.438,541.0169999999999,538.472,0.0
53970.0,STARLINK-4567,PAYLOAD,2023-01-18 02:53:13,15.08841871,0.0001496,53.217,326.6627,105.5708,254.5449,0.00060911,9.42e-05,0.0,0 STARLINK-4567,1 53970U 22125G   23018.12029802  .00009420  00000-0  60911-3 0  9999,2 53970  53.2170 326.6627 0001496 105.5708 254.5449 15.08841871 16364,6917.875,95.437,540.775,538.705,0.0
53970.0,STARLINK-4567,PAYLOAD,2023-01-18 06:03:59,15.08856133,0.0001493,53.2164,326.0665,102.5587,257.5572,0.0012140999999999,0.00019096,0.0,0 STARLINK-4567,1 53970U 22125G   23018.25277600  .00019096  00000-0  12141-2 0  9995,2 53970  53.2164 326.0665 0001493 102.5587 257.5572 15.08856133 16381,6917.831,95.437,540.729,538.663,0.0
53970.0,STARLINK-4567,PAYLOAD,2023-01-18 14:00:55,15.08849753,0.0001281,53.2176,324.5817,89.3867,270.7272,0.00081561,0.0001272,0.0,0 STARLINK-4567,1 53970U 22125G   23018.58397748  .00012720  00000-0  81561-3 0  9997,2 53970  53.2176 324.5817 0001281  89.3867 270.7272 15.08849753 16366,6917.851,95.437,540.602,538.8290000000001,0.0
53970.0,STARLINK-4567,PAYLOAD,2023-01-19 02:43:59,15.08883033,0.000109,53.2168,322.204,92.4898,267.6219,0.0023193,0.0003686,0.0,0 STARLINK-4567,1 53970U 22125G   23019.11388831  .00036860  00000-0  23193-2 0  9997,2 53970  53.2168 322.2040 0001090  92.4898 267.6219 15.08883033 16519,6917.749,95.435,540.368,538.86,0.0
53970.0,STARLINK-4567,PAYLOAD,2023-01-19 05:54:45,15.0888916,0.0001139,53.2168,321.6083,93.6648,266.4474,0.0020399999999999,0.00032372,0.0,0 STARLINK-4567,1 53970U 22125G   23019.24636386  .00032372  00000-0  20400-2 0  9994,2 53970  53.2168 321.6083 0001139  93.6648 266.4474 15.08889160 16460,6917.73,95.434,540.383,538.807,0.0
53970.0,STARLINK-4567,PAYLOAD,2023-01-20 02:34:47,15.08849603,0.0001682,53.2162,317.74,115.9948,244.1217,0.0021753,0.00034511,0.0,0 STARLINK-4567,1 53970U 22125G   23020.10749396  .00034511  00000-0  21753-2 0  9996,2 53970  53.2162 317.7400 0001682 115.9948 244.1217 15.08849603 16665,6917.851,95.437,540.88,538.552,0.0
53970.0,STARLINK-4567,PAYLOAD,2023-01-20 12:07:06,15.08836907,8.51e-05,53.2177,315.9585,126.8872,233.2198,0.0019571,0.00030994,0.0,0 STARLINK-4567,1 53970U 22125G   23020.50493821  .00030994  00000-0  19571-2 0  9995,2 53970  53.2177 315.9585 0000851 126.8872 233.2198 15.08836907 16726,6917.89,95.438,540.344,539.1659999999999,0.0
53970.0,STARLINK-4567,PAYLOAD,2023-01-21 02:25:35,15.0883742,0.0001219,53.2172,313.2835,120.7198,239.3914,0.0011926999999999,0.00018743,0.0,0 STARLINK-4567,1 53970U 22125G   23021.10110645  .00018743  00000-0  11927-2 0  9997,2 53970  53.2172 313.2835 0001219 120.7198 239.3914 15.08837420 16817,6917.888000000001,95.438,540.597,538.91,0.0
